#dP2024  2  9  0  0  0.00000000      96 __u+U IGS20 EXT  IAC
## 2300 432000.00000000   900.00000000 60349 0.0000000000000
+  120   C06C07C08C09C10C11C12C13C14C16C19C20C21C22C23C24C25
+        C26C27C28C29C30C32C33C34C35C36C37C38C39C40C41C42C43
+        C44C45C46E02E03E04E05E07E08E09E10E11E12E13E14E15E18
+        E19E21E24E25E26E27E30E31E33E34E36G01G02G03G04G05G06
+        G07G08G09G10G11G12G13G14G15G16G17G18G19G20G21G22G23
+        G24G25G26G27G28G29G30G31G32J02J03J04R01R02R03R04R05
+        R07R08R09R11R12R13R14R15R16R17R18R19R20R21R22R24R25
+        R26  0  0  0  0  0  0  0  0  0  0  0  0  0  0  0  0
++         9 10  8  8 10  8  9  9  9  9  9  8  6  8  8  9  7
++         8  9  9 10 10  8  8  9  9 10  9 11 10 11  9  8  9
++         8  8  8  7  8  8  8  7  7  7  7  8  8  8  8  8  8
++         7  8  7  7  8  8  8  7  8  8  8  8  9  7  8  7  8
++         7  8  6  7  8  7  8  7  7  7  8  8  8  8  9  8  8
++         7  7  7  8  7  7  6  7  7  8  0 10  7  8  8  7  8
++         8  6  8  7  6  8  8  8  9 10  8 10  9  8  8  8  8
++        10  0  0  0  0  0  0  0  0  0  0  0  0  0  0  0  0
%c M  cc GPS ccc cccc cccc cccc cccc ccccc ccccc ccccc ccccc
%c cc cc ccc ccc cccc cccc cccc cccc ccccc ccccc ccccc ccccc
%f  0.0000000  0.000000000  0.00000000000  0.000000000000000
%f  0.0000000  0.000000000  0.00000000000  0.000000000000000
%i    0    0    0    0      0      0      0      0         0
%i    0    0    0    0      0      0      0      0         0
/* IAC                                ULTRA-RAPID PREDICTION
/* S/V CLOCKS ARE ALIGNED TO GNSS TIME                      
/* G:C1WC2W R:C1PC2P E:C1XC5X C:C2IC6I J:C1CC2S             
/* PCV:IGS20_2290 OL/AL:FES2004  NONE     YN ORB:CoN CLK:CoN
*  2024 02 09 11  0  0.00000000
PC06  -2180.114195  29290.791185 -30107.759105     98.999278
PC07 -16038.436853  29755.257037  25169.004023   -773.224599
PC08 -11495.750336  40640.382723   1888.897442     51.471243
PC09   5834.614312  33330.259720 -24311.616447   -466.346173
PC10  -7888.429846  29901.463115  28793.531739     92.213215
PC11   5205.278506 -14664.877093 -23093.358293    401.577571
PC12  21646.392950  -1359.343069 -17515.409760    774.212839
PC13  -5609.845972  41476.431188  -6028.195506    415.786933
PC14  14711.622908 -19857.590044  13033.271556    151.539002
PC16  -3522.530967  27779.407092 -31140.468121   -329.555107
PC19  -5550.430290  19127.471856 -19510.012308   -928.519858
PC20 -20518.791213  17876.572134  -6095.989909   -145.877710
PC21  24427.053100  -5620.091574 -12273.584158   -962.469878
PC22  13522.449093   9460.492548 -22505.345509   -116.236973
PC23 -10972.567670 -21579.696426 -13881.121020   -782.435321
PC24  12082.736131 -17790.043934  17746.921172    868.353148
PC25   -245.084916 -27802.625876   2234.942219    321.964958
PC26  16375.490105   1627.383413  22517.163387   -246.695541
PC27 -25315.946359  -5138.490452  10557.281896    268.716462
PC28 -22307.820822 -15962.227690  -5135.753166    204.321143
PC29   5022.551973  18345.340392  20414.260417    239.459077
PC30 -15332.790439   9267.563907  21395.165553    -23.192257
PC32 -24348.047372   5687.231694  12399.119362   -565.033430
PC33   5525.632584 -19233.127728  19464.134916   -947.506508
PC34  13898.516284 -10381.479039 -21864.539371    365.532253
PC35  22813.462867  15160.818874   5207.584512    437.734892
PC36   -755.969834  27766.490739  -2741.977512    -21.313778
PC37 -16337.386675  -2479.863044 -22484.234487   -935.207762
PC38 -15070.673540  38183.670254   9976.289035    135.736186
PC39  -9084.565421  23464.843429 -33742.815561     -7.041939
PC40 -23292.769841  23554.726475  25916.507424    -55.720918
PC41 -12822.523176 -10088.349450  22695.179148   -888.582111
PC42  21380.251256 -17366.707312   4613.668139   -456.136458
PC43  -3982.290922 -18268.637265 -20732.643596     59.755111
PC44  25541.669653   4186.688654 -10400.342545    379.254435
PC45  10950.808676  21453.240049  14102.006567    -68.966861
PC46 -11610.340650  18643.505951 -17253.144804   -122.415862
PE02 -17047.356806  -3747.078884 -23921.003560    101.970001
PE03 -28067.267774  -5679.460720   7475.707544    -92.669503
PE04  26367.320463  -7414.354143  11230.151552   -323.222472
PE05 -13379.615056 -15270.540446  21545.089729   4718.377883
PE07  -9693.696996  15907.718829 -22996.077351   -102.856046
PE08 -26723.815283   6936.863359 -10661.906333   -221.150107
PE09   9834.608281 -15752.280856  23055.932212   -329.802792
PE10   8720.632231 -15530.740328 -23642.450908   -600.606048
PE11    567.335302 -23316.348031 -18242.680869   3255.910392
PE12  14809.789902  -6372.383942 -24820.616416   -898.816812
PE13  -1063.600400  22877.718254  18753.706248    -20.134512
PE14  27455.630942 -10231.037801 -13994.899826     34.447441
PE15 -15056.493907   5739.193719  24841.040220    -84.834288
PE18 -17382.129762   9488.075665  12730.713727    306.832510
PE19  27091.901941   7145.095225  -9531.031582   -648.728065
PE21   3957.876957  20900.668205  20577.115234   -578.133534
PE24  12305.101789 -26489.271435  -4737.598182   -588.589237
PE25  -3652.990965 -21147.810168 -20384.967753      0.647786
PE26  13677.827054  26221.738827   1169.912943    363.714275
PE27 -11995.795940  26587.214876   5080.137660   -270.351619
PE30 -20810.491414  16254.603881 -13411.580601   -892.791529
PE31  20683.036462 -16528.759910  13224.034278    -15.609539
PE33  19981.322888  15010.386034 -15853.327236      7.317486
PE34 -20044.645598 -14461.755889  16285.975091    -93.667031
PE36 -13336.422193 -26373.646453  -1789.898236   -183.513836
PG01 -16886.594379  -3652.788458  19937.999605    168.873838
PG02 -19732.904814  -9672.732100  15595.845360   -488.149873
PG03 -16996.769109   2541.157610  20075.325248    181.906328
PG04 -26554.957302  -1752.528985   1082.050198    287.349571
PG05  11611.087121  10103.991746 -21807.929350   -161.142574
PG06   3868.359583  23292.483856  12121.607819    413.870525
PG07 -11729.483030   9922.672633 -21142.542228    -57.757169
PG08 -24186.353967  -6201.358053  -9749.559888   -166.175934
PG09 -22816.166458   8205.650272 -10993.664276     86.343386
PG10   9927.617061 -23940.002569   5159.968930    -72.627866
PG11  11643.159595  23890.407596    748.961265   -569.823744
PG12  17308.398845   -950.735207  19817.937832   -476.255543
PG13  16977.678812  13356.275665 -15802.391885    623.907211
PG14 -13081.488062  22962.534294   1290.247848    321.132713
PG15  24458.757126   4076.824219 -10283.061442    125.896485
PG16  -6116.932362 -16062.521055 -20458.530742   -366.457008
PG17 -12008.108926  13088.879491  20220.244189    717.536976
PG18  10575.116252 -11194.871713 -21602.293586   -551.682514
PG19  -1348.461562  14867.070198  21782.060748    438.237916
PG20   3685.704837  21467.360193 -15250.747462    388.164767
PG21 -19931.303499 -14688.806051  11332.461527    135.558599
PG22  -8586.243104  23592.978355   9531.662989     34.109304
PG23  16278.840776 -19499.999454  -7395.947232    152.501247
PG24  19980.988282  11973.420659  12720.792309   -428.800284
PG25  18409.381751 -12569.223338  13892.755934    488.046985
PG26    468.493748 -23088.535766 -12935.521751    192.051329
PG27 -14280.743231 -12949.870153 -18728.327949     -2.470864
PG28  -2243.518857 -22363.056159  14134.352182   -125.253827
PG29  24223.451686  -4865.335956  -9929.438716   -607.297688
PG30  -3683.513698  19481.496718 -17418.908577   -434.842071
PG31  -8818.898119 -24182.837749   5403.576151   -227.703714
PG32   7504.816917 -14684.159144  20977.244614   -610.638170
PJ02 -28433.342412  30677.576444   -719.349851     -1.827295
PJ03 -25516.802007  23115.577672  29457.974539     -0.215099
PJ04 -31881.381207  26205.462065  -4129.911869     50.955690
PR01   5449.904179   9560.038298 -23007.531225     76.719555
PR02  20136.805658   -108.540858 -15564.980181    -22.457391
PR03  23458.129567  -9903.559903    849.973652     94.200836
PR04  14008.057359 -13663.722355  16386.172285    222.681078
PR05  -3038.800156 -10313.565137  23145.639787    126.641783
PR07 -23354.752724  10199.398936  -1584.279836     75.424493
PR08 -13771.119766  13826.153072 -16385.205578    -74.359579
PR09 -10189.184425  -7704.423478 -22078.595297    169.033591
PR11  -6701.020784  23331.309169  -7808.280766     34.897042
PR12   2499.448544  22685.275676  11427.299222     36.550999
PR13   9163.010774  10228.062709  21475.597879    -44.187283
PR14  11218.774115 -11203.739994  19990.967770     26.038591
PR15   6321.368497 -23881.153737   6373.896433     82.347071
PR16  -2392.846563 -22821.734124 -11173.107078     23.141586
PR17  15385.379366    329.341321 -20342.244499     59.775803
PR18   1847.146536 -11622.000121 -22620.743974    126.496090
PR19 -10785.647849 -17879.469805 -14650.747357   -265.162296
PR20 -20411.147465 -14199.896596   5815.293077   -108.009024
PR21 -15112.734331   -230.205006  20544.920408    -75.587958
PR22  -1549.955848  12482.909603  22216.825431    107.243528
PR24  21060.159696  12949.648109  -6278.609843    -43.208539
PR25 -15427.803212   -612.175710  20307.326115     93.803460
PR26 -14410.638110  13895.463780 -15772.223228   -199.244627
EOF
